OBJECT_NAME,OBJECT_ID,EPOCH,MEAN_MOTION,ECCENTRICITY,INCLINATION,RA_OF_ASC_NODE,ARG_OF_PERICENTER,MEAN_ANOMALY,EPHEMERIS_TYPE,CLASSIFICATION_TYPE,NORAD_CAT_ID,ELEMENT_SET_NO,REV_AT_EPOCH,BSTAR,MEAN_MOTION_DOT,MEAN_MOTION_DDOT
ONEWEB-0667,2023-029AH,2026-07-19T14:28:23.051712,13.20771368,.00020193,87.9183,267.9728,103.5545,256.5813,0,U,55827,999,16542,-.37372316E-3,-.139E-5,0
ONEWEB-0669,2023-029AJ,2026-07-19T10:42:56.430144,13.20770236,.0001562,87.9181,268.0128,88.4448,271.6864,0,U,55828,999,16540,.29605961E-3,.133E-5,0
ONEWEB-0670,2023-029AK,2026-07-19T06:11:21.410880,13.14501866,.00017013,87.8951,283.3478,108.1179,252.0136,0,U,55829,999,16364,-.53676093E-3,-.186E-5,0
ONEWEB-0671,2023-029AL,2026-07-19T06:51:19.113696,13.19725226,.00019677,87.9186,298.5840,105.2331,254.9020,0,U,55830,999,16313,-.14522395E-3,-.45E-6,0
ONEWEB-0672,2023-029AM,2026-07-19T14:13:51.655008,13.20770816,.00020265,87.9178,267.9775,90.8622,269.2744,0,U,55831,999,16542,.23554171E-3,.109E-5,0
ONEWEB-0673,2023-029AN,2026-07-19T08:07:30.862560,13.19725581,.00019531,87.9191,298.5674,104.8438,255.2911,0,U,55832,999,16314,-.87499314E-4,-.22E-6,0
ONEWEB-0674,2023-029AP,2026-07-19T05:25:40.680192,13.14501657,.00016703,87.8959,283.3317,106.9011,253.2302,0,U,55833,999,16362,.63364392E-3,.248E-5,0
ONEWEB-0675,2023-029AQ,2026-07-19T13:56:39.946560,13.19725056,.00022279,87.9186,298.5270,95.7392,264.3995,0,U,55834,999,16319,.21022773E-3,.97E-6,0
ONEWEB-0720,2023-029AR,2026-07-19T08:17:45.150144,13.19726060,.00021784,87.9182,298.5735,107.4982,252.6389,0,U,55835,999,16308,-.2707733E-5,.12E-6,0
ONEWEB-0537,2023-043A,2026-07-19T02:43:11.476128,13.16594106,.00021717,87.9076,222.4296,88.3215,271.8164,0,U,56046,999,16316,.50755108E-4,.32E-6,0
ONEWEB-0538,2023-043B,2026-07-19T11:41:14.693568,13.16594228,.00023352,87.9079,222.3582,92.6445,267.4953,0,U,56047,999,16322,-.98157447E-4,-.25E-6,0
ONEWEB-0546,2023-043C,2026-07-19T11:23:00.386592,13.16593905,.00022095,87.9083,222.3613,74.3713,285.7661,0,U,56048,999,16321,-.16275698E-3,-.49E-6,0
ONEWEB-0547,2023-043D,2026-07-19T11:52:29.485344,13.21825228,.00022421,87.9236,237.5450,98.2243,261.9145,0,U,56049,999,16249,-.72849009E-3,-.288E-5,0
ONEWEB-0548,2023-043E,2026-07-19T11:58:19.603200,13.16594870,.00015935,87.9075,222.3513,95.0385,265.0928,0,U,56050,999,16321,.10901469E-3,.55E-6,0
ONEWEB-0549,2023-043F,2026-07-19T13:33:01.224000,13.21825408,.00024536,87.9229,237.5358,95.3482,264.7932,0,U,56051,999,16250,-.62777311E-3,-.246E-5,0
ONEWEB-0550,2023-043G,2026-07-19T11:24:39.089088,13.21827240,.00018956,87.9232,237.5521,99.5255,260.6093,0,U,56052,999,16249,-.16774728E-3,-.56E-6,0
ONEWEB-0551,2023-043H,2026-07-19T04:12:32.536512,13.15547626,.00024556,87.8975,252.8519,99.5914,260.5494,0,U,56053,999,16060,-.34683908E-3,-.118E-5,0
ONEWEB-0552,2023-043J,2026-07-19T11:17:22.196256,13.21826287,.00021219,87.9231,237.5575,101.9094,258.2278,0,U,56054,999,16249,-.48275127E-4,-.7E-7,0
ONEWEB-0553,2023-043K,2026-07-19T11:32:07.480896,13.16594130,.00019696,87.9078,222.3594,82.5395,277.5959,0,U,56055,999,16322,-.11546214E-3,-.31E-6,0
ONEWEB-0554,2023-043L,2026-07-19T11:13:53.298336,13.16594558,.0001542,87.9078,222.3705,95.4881,264.6426,0,U,56056,999,16320,-.13561754E-3,-.39E-6,0
ONEWEB-0555,2023-043M,2026-07-19T10:19:09.768288,13.16593713,.00020708,87.9077,222.3670,77.4571,282.6792,0,U,56057,999,16320,.14294847E-3,.67E-6,0
ONEWEB-0557,2023-043N,2026-07-19T10:39:40.910400,13.16594351,.00010952,87.9082,222.3741,63.3707,296.7536,0,U,56058,999,16320,.15647235E-3,.73E-6,0
ONEWEB-0558,2023-043P,2026-07-19T12:56:41.703648,13.21826216,.00023667,87.9231,237.5397,93.5664,266.5740,0,U,56059,999,16251,.97484562E-4,.53E-6,0
ONEWEB-0559,2023-043Q,2026-07-19T09:01:44.500800,13.21824244,.00022678,87.9231,237.5680,99.3830,260.7561,0,U,56060,999,16250,.5529385E-4,.36E-6,0
ONEWEB-0566,2023-043R,2026-07-19T12:30:03.631104,13.21824249,.00023365,87.9232,237.5367,100.0932,260.0465,0,U,56061,999,16250,.21778552E-4,.22E-6,0
ONEWEB-0568,2023-043S,2026-07-19T11:04:45.130944,13.16596273,.0002063,87.9077,222.3597,84.8314,275.3052,0,U,56062,999,16322,-.12134332E-3,-.34E-6,0
ONEWEB-0574,2023-043T,2026-07-19T08:42:22.554720,13.21826241,.00019128,87.9239,237.5734,94.2029,265.9324,0,U,56063,999,16252,.14774938E-3,.74E-6,0
ONEWEB-0575,2023-043U,2026-07-19T10:55:37.651296,13.16595705,.00016939,87.9079,222.3573,85.6445,274.4879,0,U,56064,999,16321,.4828601E-5,.15E-6,0
ONEWEB-0576,2023-043V,2026-07-19T10:28:15.646080,13.16595282,.00019226,87.9084,222.3700,91.9944,268.1407,0,U,56065,999,16320,.6007916E-4,.36E-6,0
ONEWEB-0577,2023-043W,2026-07-19T10:37:23.512800,13.16595722,.00013097,87.9081,222.3663,89.4548,270.6733,0,U,56066,999,16323,.7424837E-4,.41E-6,0
