ONEWEB-0667             
1 55827U 23029AH  26200.60304458 -.00000139  00000+0 -37372-3 0  9992
2 55827  87.9183 267.9728 0002019 103.5545 256.5813 13.20771368165427
ONEWEB-0669             
1 55828U 23029AJ  26200.44648646  .00000133  00000+0  29606-3 0  9998
2 55828  87.9181 268.0128 0001562  88.4448 271.6864 13.20770236165402
ONEWEB-0670             
1 55829U 23029AK  26200.25788670 -.00000186  00000+0 -53676-3 0  9994
2 55829  87.8951 283.3478 0001701 108.1179 252.0136 13.14501866163644
ONEWEB-0671             
1 55830U 23029AL  26200.28563789 -.00000045  00000+0 -14522-3 0  9992
2 55830  87.9186 298.5840 0001967 105.2331 254.9020 13.19725226163130
ONEWEB-0672             
1 55831U 23029AM  26200.59295897  .00000109  00000+0  23554-3 0  9993
2 55831  87.9178 267.9775 0002026  90.8622 269.2744 13.20770816165421
ONEWEB-0673             
1 55832U 23029AN  26200.33855165 -.00000022  00000+0 -87499-4 0  9991
2 55832  87.9191 298.5674 0001953 104.8438 255.2911 13.19725581163149
ONEWEB-0674             
1 55833U 23029AP  26200.22616528  .00000248  00000+0  63364-3 0  9990
2 55833  87.8959 283.3317 0001670 106.9011 253.2302 13.14501657163629
ONEWEB-0675             
1 55834U 23029AQ  26200.58101790  .00000097  00000+0  21023-3 0  9998
2 55834  87.9186 298.5270 0002227  95.7392 264.3995 13.19725056163194
ONEWEB-0720             
1 55835U 23029AR  26200.34566146  .00000012  00000+0 -27077-5 0  9998
2 55835  87.9182 298.5735 0002178 107.4982 252.6389 13.19726060163089
ONEWEB-0537             
1 56046U 23043A   26200.11332727  .00000032  00000+0  50755-4 0  9999
2 56046  87.9076 222.4296 0002171  88.3215 271.8164 13.16594106163167
ONEWEB-0538             
1 56047U 23043B   26200.48697562 -.00000025  00000+0 -98157-4 0  9993
2 56047  87.9079 222.3582 0002335  92.6445 267.4953 13.16594228163222
ONEWEB-0546             
1 56048U 23043C   26200.47431003 -.00000049  00000+0 -16276-3 0  9996
2 56048  87.9083 222.3613 0002209  74.3713 285.7661 13.16593905163217
ONEWEB-0547             
1 56049U 23043D   26200.49478571 -.00000288  00000+0 -72849-3 0  9993
2 56049  87.9236 237.5450 0002242  98.2243 261.9145 13.21825228162499
ONEWEB-0548             
1 56050U 23043E   26200.49883800  .00000055  00000+0  10901-3 0  9991
2 56050  87.9075 222.3513 0001593  95.0385 265.0928 13.16594870163219
ONEWEB-0549             
1 56051U 23043F   26200.56459750 -.00000246  00000+0 -62777-3 0  9995
2 56051  87.9229 237.5358 0002453  95.3482 264.7932 13.21825408162505
ONEWEB-0550             
1 56052U 23043G   26200.47545242 -.00000056  00000+0 -16775-3 0  9994
2 56052  87.9232 237.5521 0001895  99.5255 260.6093 13.21827240162492
ONEWEB-0551             
1 56053U 23043H   26200.17537658 -.00000118  00000+0 -34684-3 0  9992
2 56053  87.8975 252.8519 0002455  99.5914 260.5494 13.15547626160603
ONEWEB-0552             
1 56054U 23043J   26200.47039579 -.00000007  00000+0 -48275-4 0  9994
2 56054  87.9231 237.5575 0002121 101.9094 258.2278 13.21826287162492
ONEWEB-0553             
1 56055U 23043K   26200.48064214 -.00000031  00000+0 -11546-3 0  9997
2 56055  87.9078 222.3594 0001969  82.5395 277.5959 13.16594130163227
ONEWEB-0554             
1 56056U 23043L   26200.46797799 -.00000039  00000+0 -13562-3 0  9995
2 56056  87.9078 222.3705 0001542  95.4881 264.6426 13.16594558163200
ONEWEB-0555             
1 56057U 23043M   26200.42997417  .00000067  00000+0  14295-3 0  9994
2 56057  87.9077 222.3670 0002070  77.4571 282.6792 13.16593713163202
ONEWEB-0557             
1 56058U 23043N   26200.44422350  .00000073  00000+0  15647-3 0  9995
2 56058  87.9082 222.3741 0001095  63.3707 296.7536 13.16594351163200
ONEWEB-0558             
1 56059U 23043P   26200.53937157  .00000053  00000+0  97485-4 0  9991
2 56059  87.9231 237.5397 0002366  93.5664 266.5740 13.21826216162510
ONEWEB-0559             
1 56060U 23043Q   26200.37620950  .00000036  00000+0  55294-4 0  9998
2 56060  87.9231 237.5680 0002267  99.3830 260.7561 13.21824244162501
ONEWEB-0566             
1 56061U 23043R   26200.52087536  .00000022  00000+0  21779-4 0  9999
2 56061  87.9232 237.5367 0002336 100.0932 260.0465 13.21824249162506
ONEWEB-0568             
1 56062U 23043S   26200.46163346 -.00000034  00000+0 -12134-3 0  9996
2 56062  87.9077 222.3597 0002063  84.8314 275.3052 13.16596273163229
ONEWEB-0574             
1 56063U 23043T   26200.36276105  .00000074  00000+0  14775-3 0  9999
2 56063  87.9239 237.5734 0001912  94.2029 265.9324 13.21826241162527
ONEWEB-0575             
1 56064U 23043U   26200.45529689  .00000015  00000+0  48286-5 0  9999
2 56064  87.9079 222.3573 0001693  85.6445 274.4879 13.16595705163214
ONEWEB-0576             
1 56065U 23043V   26200.43629220  .00000036  00000+0  60079-4 0  9996
2 56065  87.9084 222.3700 0001922  91.9944 268.1407 13.16595282163208
ONEWEB-0577             
1 56066U 23043W   26200.44263325  .00000041  00000+0  74248-4 0  9997
2 56066  87.9081 222.3663 0001309  89.4548 270.6733 13.16595722163237
